[{"OBJECT_NAME":"UTMN 2 (RS27S)","OBJECT_ID":"2023-091AP","EPOCH":"2026-03-09T23:09:07.917408","MEAN_MOTION":15.29495965,"ECCENTRICITY":0.00097379,"INCLINATION":97.5194,"RA_OF_ASC_NODE":134.949,"ARG_OF_PERICENTER":76.0788,"MEAN_ANOMALY":284.1534,"EPHEMERIS_TYPE":0,"CLASSIFICATION_TYPE":"U","NORAD_CAT_ID":57203,"ELEMENT_SET_NO":999,"REV_AT_EPOCH":14936,"BSTAR":0.00056135701,"MEAN_MOTION_DOT":0.00016013,"MEAN_MOTION_DDOT":0},{"OBJECT_NAME":"STARLINK-34521","OBJECT_ID":"2025-137U","EPOCH":"2026-03-09T22:25:26.164704","MEAN_MOTION":15.30216317,"ECCENTRICITY":0.00011301,"INCLINATION":53.1612,"RA_OF_ASC_NODE":334.0022,"ARG_OF_PERICENTER":155.5479,"MEAN_ANOMALY":204.5575,"EPHEMERIS_TYPE":0,"CLASSIFICATION_TYPE":"U","NORAD_CAT_ID":64612,"ELEMENT_SET_NO":999,"REV_AT_EPOCH":4077,"BSTAR":0.0010236873,"MEAN_MOTION_DOT":0.00030098,"MEAN_MOTION_DDOT":0}]
